[
    {
        "Altitude(m)": 702690.4631014635,
        "Argument of Periapsis(deg)": 0.0011390121186627068,
        "Eccentricity": 0.0,
        "Inclination(deg)": 45.0,
        "Latitude(deg)": 10.693695065888654,
        "Longitude(deg)": -140.87554119630892,
        "Mean Anomaly(deg)": 164.78972166474807,
        "RAAN(deg)": 149.9989248058542,
        "Satellite Name": "Constellation 1 670",
        "Satellite Number": 670,
        "Semi-Major Axis(m)": 7083131.272910544,
        "Time(s)": 19
    },
    {
        "Altitude(m)": 702690.9819052101,
        "Argument of Periapsis(deg)": 0.0011989601249081123,
        "Eccentricity": 0.0,
        "Inclination(deg)": 45.0,
        "Latitude(deg)": 10.651246911909684,
        "Longitude(deg)": -140.8352676573882,
        "Mean Anomaly(deg)": 164.85042280499803,
        "RAAN(deg)": 149.9988682166886,
        "Satellite Name": "Constellation 1 670",
        "Satellite Number": 670,
        "Semi-Major Axis(m)": 7083131.272910544,
        "Time(s)": 20
    },
    {
        "Altitude(m)": 702691.5201049169,
        "Argument of Periapsis(deg)": 0.001258908131153518,
        "Eccentricity": 0.0,
        "Inclination(deg)": 45.0,
        "Latitude(deg)": 10.608792401829309,
        "Longitude(deg)": -140.79500643949248,
        "Mean Anomaly(deg)": 164.9111239452479,
        "RAAN(deg)": 149.99881162752305,
        "Satellite Name": "Constellation 1 670",
        "Satellite Number": 670,
        "Semi-Major Axis(m)": 7083131.272910544,
        "Time(s)": 21
    },
    {
        "Altitude(m)": 702692.0777165268,
        "Argument of Periapsis(deg)": 0.0013188561373989236,
        "Eccentricity": 0.0,
        "Inclination(deg)": 45.0,
        "Latitude(deg)": 10.566331563501269,
        "Longitude(deg)": -140.75475765915408,
        "Mean Anomaly(deg)": 164.97182508549778,
        "RAAN(deg)": 149.9987550383575,
        "Satellite Name": "Constellation 1 670",
        "Satellite Number": 670,
        "Semi-Major Axis(m)": 7083131.272910544,
        "Time(s)": 22
    },
    {
        "Altitude(m)": 702692.6547558983,
        "Argument of Periapsis(deg)": 0.0013788041436443293,
        "Eccentricity": 0.0,
        "Inclination(deg)": 45.0,
        "Latitude(deg)": 10.523864424754862,
        "Longitude(deg)": -140.71452092863913,
        "Mean Anomaly(deg)": 165.03252622574766,
        "RAAN(deg)": 149.9986984491919,
        "Satellite Name": "Constellation 1 670",
        "Satellite Number": 670,
        "Semi-Major Axis(m)": 7083131.272910544,
        "Time(s)": 23
    },
    {
        "Altitude(m)": 702693.2512388102,
        "Argument of Periapsis(deg)": 0.001438752149889735,
        "Eccentricity": 0.0,
        "Inclination(deg)": 45.0,
        "Latitude(deg)": 10.48139101339648,
        "Longitude(deg)": -140.67429636452925,
        "Mean Anomaly(deg)": 165.0932273659976,
        "RAAN(deg)": 149.99864186002634,
        "Satellite Name": "Constellation 1 670",
        "Satellite Number": 670,
        "Semi-Major Axis(m)": 7083131.272910544,
        "Time(s)": 24
    },
    {
        "Altitude(m)": 702693.8671809573,
        "Argument of Periapsis(deg)": 0.0014987001561351404,
        "Eccentricity": 0.0,
        "Inclination(deg)": 45.0,
        "Latitude(deg)": 10.438911357208944,
        "Longitude(deg)": -140.63408391533375,
        "Mean Anomaly(deg)": 165.1539285062475,
        "RAAN(deg)": 149.9985852708608,
        "Satellite Name": "Constellation 1 670",
        "Satellite Number": 670,
        "Semi-Major Axis(m)": 7083131.272910544,
        "Time(s)": 25
    },
    {
        "Altitude(m)": 702694.5025979474,
        "Argument of Periapsis(deg)": 0.001558648162380546,
        "Eccentricity": 0.0,
        "Inclination(deg)": 45.0,
        "Latitude(deg)": 10.39642548395162,
        "Longitude(deg)": -140.59388352958646,
        "Mean Anomaly(deg)": 165.2146296464974,
        "RAAN(deg)": 149.9985286816952,
        "Satellite Name": "Constellation 1 670",
        "Satellite Number": 670,
        "Semi-Major Axis(m)": 7083131.272910544,
        "Time(s)": 26
    },
    {
        "Altitude(m)": 702695.1575053113,
        "Argument of Periapsis(deg)": 0.0016185961686259519,
        "Eccentricity": 0.0,
        "Inclination(deg)": 45.0,
        "Latitude(deg)": 10.353933421360566,
        "Longitude(deg)": -140.55369515584545,
        "Mean Anomaly(deg)": 165.27533078674722,
        "RAAN(deg)": 149.99847209252965,
        "Satellite Name": "Constellation 1 670",
        "Satellite Number": 670,
        "Semi-Major Axis(m)": 7083131.272910544,
        "Time(s)": 27
    },
    {
        "Altitude(m)": 702695.8319184959,
        "Argument of Periapsis(deg)": 0.0016785441748713573,
        "Eccentricity": 0.0,
        "Inclination(deg)": 45.0,
        "Latitude(deg)": 10.311435197148619,
        "Longitude(deg)": -140.5135187426932,
        "Mean Anomaly(deg)": 165.33603192699718,
        "RAAN(deg)": 149.99841550336404,
        "Satellite Name": "Constellation 1 670",
        "Satellite Number": 670,
        "Semi-Major Axis(m)": 7083131.272910544,
        "Time(s)": 28
    },
    {
        "Altitude(m)": 702696.5258528597,
        "Argument of Periapsis(deg)": 0.001738492181116763,
        "Eccentricity": 0.0,
        "Inclination(deg)": 45.0,
        "Latitude(deg)": 10.268930839005568,
        "Longitude(deg)": -140.47335423873645,
        "Mean Anomaly(deg)": 165.39673306724708,
        "RAAN(deg)": 149.9983589141985,
        "Satellite Name": "Constellation 1 670",
        "Satellite Number": 670,
        "Semi-Major Axis(m)": 7083131.272910544,
        "Time(s)": 29
    },
    {
        "Altitude(m)": 702697.2393236812,
        "Argument of Periapsis(deg)": 0.0017984401873621684,
        "Eccentricity": 0.0,
        "Inclination(deg)": 45.0,
        "Latitude(deg)": 10.226420374598561,
        "Longitude(deg)": -140.43320176070313,
        "Mean Anomaly(deg)": 165.45743420749696,
        "RAAN(deg)": 149.9983023250329,
        "Satellite Name": "Constellation 1 670",
        "Satellite Number": 670,
        "Semi-Major Axis(m)": 7083131.272910544,
        "Time(s)": 30
    },
    {
        "Altitude(m)": 702697.9723461563,
        "Argument of Periapsis(deg)": 0.0018583881936075745,
        "Eccentricity": 0.0,
        "Inclination(deg)": 45.0,
        "Latitude(deg)": 10.183903831570904,
        "Longitude(deg)": -140.39306092105411,
        "Mean Anomaly(deg)": 165.51813534774692,
        "RAAN(deg)": 149.99824573586736,
        "Satellite Name": "Constellation 1 670",
        "Satellite Number": 670,
        "Semi-Major Axis(m)": 7083131.272910544,
        "Time(s)": 31
    },
    {
        "Altitude(m)": 702698.724935392,
        "Argument of Periapsis(deg)": 0.0019183361998529795,
        "Eccentricity": 0.0,
        "Inclination(deg)": 45.0,
        "Latitude(deg)": 10.141381237544193,
        "Longitude(deg)": -140.3529318365655,
        "Mean Anomaly(deg)": 165.57883648799677,
        "RAAN(deg)": 149.99818914670178,
        "Satellite Name": "Constellation 1 670",
        "Satellite Number": 670,
        "Semi-Major Axis(m)": 7083131.272910544,
        "Time(s)": 32
    },
    {
        "Altitude(m)": 702699.497106422,
        "Argument of Periapsis(deg)": 0.0019782842060983856,
        "Eccentricity": 0.0,
        "Inclination(deg)": 45.0,
        "Latitude(deg)": 10.098852620116743,
        "Longitude(deg)": -140.31281445594007,
        "Mean Anomaly(deg)": 165.6395376282467,
        "RAAN(deg)": 149.99813255753622,
        "Satellite Name": "Constellation 1 670",
        "Satellite Number": 670,
        "Semi-Major Axis(m)": 7083131.272910544,
        "Time(s)": 33
    },
    {
        "Altitude(m)": 702700.288874185,
        "Argument of Periapsis(deg)": 0.0020382322123437906,
        "Eccentricity": 0.0,
        "Inclination(deg)": 45.0,
        "Latitude(deg)": 10.056318006864586,
        "Longitude(deg)": -140.27270872790473,
        "Mean Anomaly(deg)": 165.70023876849655,
        "RAAN(deg)": 149.99807596837064,
        "Satellite Name": "Constellation 1 670",
        "Satellite Number": 670,
        "Semi-Major Axis(m)": 7083131.272910544,
        "Time(s)": 34
    },
    {
        "Altitude(m)": 702701.1002535415,
        "Argument of Periapsis(deg)": 0.002098180218589197,
        "Eccentricity": 0.0,
        "Inclination(deg)": 45.0,
        "Latitude(deg)": 10.013777425341077,
        "Longitude(deg)": -140.23261460121,
        "Mean Anomaly(deg)": 165.76093990874648,
        "RAAN(deg)": 149.99801937920506,
        "Satellite Name": "Constellation 1 670",
        "Satellite Number": 670,
        "Semi-Major Axis(m)": 7083131.272910544,
        "Time(s)": 35
    },
    {
        "Altitude(m)": 702701.9312592684,
        "Argument of Periapsis(deg)": 0.002158128224834602,
        "Eccentricity": 0.0,
        "Inclination(deg)": 45.0,
        "Latitude(deg)": 9.971230903077332,
        "Longitude(deg)": -140.19253202463017,
        "Mean Anomaly(deg)": 165.8216410489964,
        "RAAN(deg)": 149.9979627900395,
        "Satellite Name": "Constellation 1 670",
        "Satellite Number": 670,
        "Semi-Major Axis(m)": 7083131.272910544,
        "Time(s)": 36
    },
    {
        "Altitude(m)": 702702.7819060549,
        "Argument of Periapsis(deg)": 0.002218076231080008,
        "Eccentricity": 0.0,
        "Inclination(deg)": 45.0,
        "Latitude(deg)": 9.928678467582394,
        "Longitude(deg)": -140.15246111506,
        "Mean Anomaly(deg)": 165.88234218924626,
        "RAAN(deg)": 149.99790620087393,
        "Satellite Name": "Constellation 1 670",
        "Satellite Number": 670,
        "Semi-Major Axis(m)": 7083131.272910544,
        "Time(s)": 37
    }
]